{
    "links": {
        "self": "http://www.neowsapp.com/rest/v1/neo/54053731?api_key=iIulBulltgU6a56xZRHN4H3l9WmuAYTsLGpBGhQ2"
    },
    "id": "54053731",
    "neo_reference_id": "54053731",
    "name": "(2020 RJ)",
    "designation": "2020 RJ",
    "nasa_jpl_url": "http://ssd.jpl.nasa.gov/sbdb.cgi?sstr=54053731",
    "absolute_magnitude_h": 25.997,
    "estimated_diameter": {
        "kilometers": {
            "estimated_diameter_min": 0.016794032,
            "estimated_diameter_max": 0.0375525972
        },
        "meters": {
            "estimated_diameter_min": 16.7940320091,
            "estimated_diameter_max": 37.5525971886
        },
        "miles": {
            "estimated_diameter_min": 0.0104353245,
            "estimated_diameter_max": 0.0233340949
        },
        "feet": {
            "estimated_diameter_min": 55.0985319766,
            "estimated_diameter_max": 123.2040629602
        }
    },
    "is_potentially_hazardous_asteroid": false,
    "close_approach_data": [
        {
            "close_approach_date": "2020-09-08",
            "close_approach_date_full": "2020-Sep-08 22:45",
            "epoch_date_close_approach": 1599605100000,
            "relative_velocity": {
                "kilometers_per_second": "9.2983744728",
                "kilometers_per_hour": "33474.1481020412",
                "miles_per_hour": "20799.5338581822"
            },
            "miss_distance": {
                "astronomical": "0.0084478055",
                "lunar": "3.2861963395",
                "kilometers": "1263773.708974285",
                "miles": "785272.569183733"
            },
            "orbiting_body": "Earth"
        },
        {
            "close_approach_date": "2020-09-09",
            "close_approach_date_full": "2020-Sep-09 02:36",
            "epoch_date_close_approach": 1599618960000,
            "relative_velocity": {
                "kilometers_per_second": "9.4858412047",
                "kilometers_per_hour": "34149.0283368862",
                "miles_per_hour": "21218.8781907724"
            },
            "miss_distance": {
                "astronomical": "0.0076328813",
                "lunar": "2.9691908257",
                "kilometers": "1141862.784442831",
                "miles": "709520.6333438278"
            },
            "orbiting_body": "Moon"
        },
        {
            "close_approach_date": "2087-07-14",
            "close_approach_date_full": "2087-Jul-14 17:53",
            "epoch_date_close_approach": 3709043580000,
            "relative_velocity": {
                "kilometers_per_second": "17.0291545996",
                "kilometers_per_hour": "61304.9565586936",
                "miles_per_hour": "38092.5159239282"
            },
            "miss_distance": {
                "astronomical": "0.3867432445",
                "lunar": "150.4431221105",
                "kilometers": "57855965.614089215",
                "miles": "35950030.007552567"
            },
            "orbiting_body": "Earth"
        },
        {
            "close_approach_date": "2137-10-25",
            "close_approach_date_full": "2137-Oct-25 18:33",
            "epoch_date_close_approach": 5295781980000,
            "relative_velocity": {
                "kilometers_per_second": "20.3498824913",
                "kilometers_per_hour": "73259.5769685461",
                "miles_per_hour": "45520.6521447058"
            },
            "miss_distance": {
                "astronomical": "0.4653646608",
                "lunar": "181.0268530512",
                "kilometers": "69617562.028952496",
                "miles": "43258347.1285806048"
            },
            "orbiting_body": "Earth"
        },
        {
            "close_approach_date": "2161-08-06",
            "close_approach_date_full": "2161-Aug-06 03:49",
            "epoch_date_close_approach": 6046199340000,
            "relative_velocity": {
                "kilometers_per_second": "11.5947786414",
                "kilometers_per_hour": "41741.2031091106",
                "miles_per_hour": "25936.3603429915"
            },
            "miss_distance": {
                "astronomical": "0.1941170682",
                "lunar": "75.5115395298",
                "kilometers": "29039499.933364734",
                "miles": "18044308.5328879692"
            },
            "orbiting_body": "Earth"
        }
    ],
    "orbital_data": {
        "orbit_id": "9",
        "orbit_determination_date": "2020-11-07 06:21:07",
        "first_observation_date": "2020-09-05",
        "last_observation_date": "2020-09-10",
        "data_arc_in_days": 5,
        "observations_used": 120,
        "orbit_uncertainty": "7",
        "minimum_orbit_intersection": ".00889852",
        "jupiter_tisserand_invariant": "3.938",
        "epoch_osculation": "2459000.5",
        "eccentricity": ".4345321722581498",
        "semi_major_axis": "1.790293165144224",
        "inclination": "12.43055346261455",
        "ascending_node_longitude": "167.3090862937952",
        "orbital_period": "874.9528645486087",
        "perihelion_distance": "1.012353187115186",
        "perihelion_argument": "171.6797982060837",
        "aphelion_distance": "2.568233143173262",
        "perihelion_time": "2459094.941593094165",
        "mean_anomaly": "321.1419370214422",
        "mean_motion": ".4114507359041853",
        "equinox": "J2000",
        "orbit_class": {
            "orbit_class_type": "APO",
            "orbit_class_description": "Near-Earth asteroid orbits which cross the Earth’s orbit similar to that of 1862 Apollo",
            "orbit_class_range": "a (semi-major axis) > 1.0 AU; q (perihelion) < 1.017 AU"
        }
    },
    "is_sentry_object": false
}